[{"OBJECT_NAME":"JINJUSAT-1B","OBJECT_ID":"2025-052A","EPOCH":"2026-03-09T15:55:38.242848","MEAN_MOTION":15.30194857,"ECCENTRICITY":0.00055504,"INCLINATION":97.4113,"RA_OF_ASC_NODE":325.4613,"ARG_OF_PERICENTER":82.193,"MEAN_ANOMALY":277.9941,"EPHEMERIS_TYPE":0,"CLASSIFICATION_TYPE":"U","NORAD_CAT_ID":63210,"ELEMENT_SET_NO":999,"REV_AT_EPOCH":5486,"BSTAR":0.00068430401,"MEAN_MOTION_DOT":0.00019955,"MEAN_MOTION_DDOT":0},{"OBJECT_NAME":"STARLINK-34140","OBJECT_ID":"2025-107X","EPOCH":"2026-03-09T09:17:18.083904","MEAN_MOTION":15.27598758,"ECCENTRICITY":9.457e-5,"INCLINATION":42.9957,"RA_OF_ASC_NODE":203.2944,"ARG_OF_PERICENTER":152.0067,"MEAN_ANOMALY":208.0836,"EPHEMERIS_TYPE":0,"CLASSIFICATION_TYPE":"U","NORAD_CAT_ID":64085,"ELEMENT_SET_NO":999,"REV_AT_EPOCH":4605,"BSTAR":0.00082798546,"MEAN_MOTION_DOT":0.00022605,"MEAN_MOTION_DDOT":0}]
